{
  "type": "FeatureCollection",
  "features": [
    {
      "type": "Feature",
      "properties": {
        "norad_id": 67033,
        "name": "STARLINK-36137",
        "group": "last-30-days",
        "lat": -31.8546785266754,
        "lon": 48.58086432766035,
        "alt_km": 388.66554946910946,
        "timestamp": "2025-12-27T19:21:57.546384+00:00",
        "meta_object_name": "STARLINK-36137",
        "meta_object_id": "2025-294D",
        "meta_epoch": "2025-12-27T12:00:02.000160",
        "meta_mean_motion": 15.61605246,
        "meta_eccentricity": 0.0001474,
        "meta_inclination": 42.9994,
        "meta_ra_of_asc_node": 92.2258,
        "meta_arg_of_pericenter": 282.3105,
        "meta_mean_anomaly": 100.3662,
        "meta_ephemeris_type": 0,
        "meta_classification_type": "U",
        "meta_norad_cat_id": 67033,
        "meta_element_set_no": 999,
        "meta_rev_at_epoch": 247,
        "meta_bstar": -0.024681,
        "meta_mean_motion_dot": -0.01925921,
        "meta_mean_motion_ddot": 0,
        "tle_line1": "1 67033U 25294D   25361.50002315 -.01925921  00000+0 -24681-1 0  9996",
        "tle_line2": "2 67033  42.9994  92.2258 0001474 282.3105 100.3662 15.61605246  2470"
      },
      "geometry": {
        "type": "Point",
        "coordinates": [
          48.58086432766035,
          -31.8546785266754
        ]
      }
    },
    {
      "type": "Feature",
      "properties": {
        "norad_id": 67034,
        "name": "STARLINK-36140",
        "group": "last-30-days",
        "lat": -29.73920670950715,
        "lon": 52.574617886808056,
        "alt_km": 388.3737138401184,
        "timestamp": "2025-12-27T19:21:57.546393+00:00",
        "meta_object_name": "STARLINK-36140",
        "meta_object_id": "2025-294E",
        "meta_epoch": "2025-12-27T06:00:02.000160",
        "meta_mean_motion": 15.62628991,
        "meta_eccentricity": 0.00014495,
        "meta_inclination": 42.9993,
        "meta_ra_of_asc_node": 93.7002,
        "meta_arg_of_pericenter": 279.5923,
        "meta_mean_anomaly": 139.5249,
        "meta_ephemeris_type": 0,
        "meta_classification_type": "U",
        "meta_norad_cat_id": 67034,
        "meta_element_set_no": 999,
        "meta_rev_at_epoch": 244,
        "meta_bstar": -0.02334814,
        "meta_mean_motion_dot": -0.01900237,
        "meta_mean_motion_ddot": 0,
        "tle_line1": "1 67034U 25294E   25361.25002315 -.01900237  00000+0 -23348-1 0  9991",
        "tle_line2": "2 67034  42.9993  93.7002 0001449 279.5923 139.5249 15.62628991  2446"
      },
      "geometry": {
        "type": "Point",
        "coordinates": [
          52.574617886808056,
          -29.73920670950715
        ]
      }
    },
    {
      "type": "Feature",
      "properties": {
        "norad_id": 67035,
        "name": "STARLINK-36085",
        "group": "last-30-days",
        "lat": -27.50909614390976,
        "lon": 56.40337330641567,
        "alt_km": 388.59470624563346,
        "timestamp": "2025-12-27T19:21:57.546402+00:00",
        "meta_object_name": "STARLINK-36085",
        "meta_object_id": "2025-294F",
        "meta_epoch": "2025-12-27T12:00:02.000160",
        "meta_mean_motion": 15.61552427,
        "meta_eccentricity": 0.0001526,
        "meta_inclination": 42.999,
        "meta_ra_of_asc_node": 92.2052,
        "meta_arg_of_pericenter": 280.7998,
        "meta_mean_anomaly": 110.0165,
        "meta_ephemeris_type": 0,
        "meta_classification_type": "U",
        "meta_norad_cat_id": 67035,
        "meta_element_set_no": 999,
        "meta_rev_at_epoch": 248,
        "meta_bstar": -0.024652,
        "meta_mean_motion_dot": -0.01920441,
        "meta_mean_motion_ddot": 0,
        "tle_line1": "1 67035U 25294F   25361.50002315 -.01920441  00000+0 -24652-1 0  9998",
        "tle_line2": "2 67035  42.9990  92.2052 0001526 280.7998 110.0165 15.61552427  2489"
      },
      "geometry": {
        "type": "Point",
        "coordinates": [
          56.40337330641567,
          -27.50909614390976
        ]
      }
    },
    {
      "type": "Feature",
      "properties": {
        "norad_id": 67036,
        "name": "STARLINK-36125",
        "group": "last-30-days",
        "lat": -28.647343573299942,
        "lon": 54.49418054375199,
        "alt_km": 388.6463710950784,
        "timestamp": "2025-12-27T19:21:57.546411+00:00",
        "meta_object_name": "STARLINK-36125",
        "meta_object_id": "2025-294G",
        "meta_epoch": "2025-12-27T12:00:02.000160",
        "meta_mean_motion": 15.61566841,
        "meta_eccentricity": 0.0001497,
        "meta_inclination": 42.9989,
        "meta_ra_of_asc_node": 92.2105,
        "meta_arg_of_pericenter": 278.8104,
        "meta_mean_anomaly": 109.9506,
        "meta_ephemeris_type": 0,
        "meta_classification_type": "U",
        "meta_norad_cat_id": 67036,
        "meta_element_set_no": 999,
        "meta_rev_at_epoch": 267,
        "meta_bstar": -0.024619,
        "meta_mean_motion_dot": -0.01919128,
        "meta_mean_motion_ddot": 0,
        "tle_line1": "1 67036U 25294G   25361.50002315 -.01919128  00000+0 -24619-1 0  9992",
        "tle_line2": "2 67036  42.9989  92.2105 0001497 278.8104 109.9506 15.61566841  2673"
      },
      "geometry": {
        "type": "Point",
        "coordinates": [
          54.49418054375199,
          -28.647343573299942
        ]
      }
    },
    {
      "type": "Feature",
      "properties": {
        "norad_id": 67037,
        "name": "STARLINK-35732",
        "group": "last-30-days",
        "lat": -26.324556996365764,
        "lon": 58.30559582412628,
        "alt_km": 388.4903074344784,
        "timestamp": "2025-12-27T19:21:57.546419+00:00",
        "meta_object_name": "STARLINK-35732",
        "meta_object_id": "2025-294H",
        "meta_epoch": "2025-12-27T12:00:02.000160",
        "meta_mean_motion": 15.61522795,
        "meta_eccentricity": 0.0001649,
        "meta_inclination": 42.9992,
        "meta_ra_of_asc_node": 92.1999,
        "meta_arg_of_pericenter": 282.7825,
        "meta_mean_anomaly": 110.1338,
        "meta_ephemeris_type": 0,
        "meta_classification_type": "U",
        "meta_norad_cat_id": 67037,
        "meta_element_set_no": 999,
        "meta_rev_at_epoch": 259,
        "meta_bstar": -0.024447,
        "meta_mean_motion_dot": -0.01904445,
        "meta_mean_motion_ddot": 0,
        "tle_line1": "1 67037U 25294H   25361.50002315 -.01904445  00000+0 -24447-1 0  9998",
        "tle_line2": "2 67037  42.9992  92.1999 0001649 282.7825 110.1338 15.61522795  2599"
      },
      "geometry": {
        "type": "Point",
        "coordinates": [
          58.30559582412628,
          -26.324556996365764
        ]
      }
    },
    {
      "type": "Feature",
      "properties": {
        "norad_id": 67038,
        "name": "STARLINK-35775",
        "group": "last-30-days",
        "lat": -25.166777725466968,
        "lon": 60.08967806914181,
        "alt_km": 388.6304668998555,
        "timestamp": "2025-12-27T19:21:57.546428+00:00",
        "meta_object_name": "STARLINK-35775",
        "meta_object_id": "2025-294J",
        "meta_epoch": "2025-12-27T12:00:02.000160",
        "meta_mean_motion": 15.61534545,
        "meta_eccentricity": 0.000134,
        "meta_inclination": 42.9989,
        "meta_ra_of_asc_node": 92.1942,
        "meta_arg_of_pericenter": 284.52,
        "meta_mean_anomaly": 110.3877,
        "meta_ephemeris_type": 0,
        "meta_classification_type": "U",
        "meta_norad_cat_id": 67038,
        "meta_element_set_no": 999,
        "meta_rev_at_epoch": 259,
        "meta_bstar": -0.024986,
        "meta_mean_motion_dot": -0.01942072,
        "meta_mean_motion_ddot": 0,
        "tle_line1": "1 67038U 25294J   25361.50002315 -.01942072  00000+0 -24986-1 0  9995",
        "tle_line2": "2 67038  42.9989  92.1942 0001340 284.5200 110.3877 15.61534545  2595"
      },
      "geometry": {
        "type": "Point",
        "coordinates": [
          60.08967806914181,
          -25.166777725466968
        ]
      }
    },
    {
      "type": "Feature",
      "properties": {
        "norad_id": 67039,
        "name": "STARLINK-35705",
        "group": "last-30-days",
        "lat": -22.767283277564733,
        "lon": 63.591174942369484,
        "alt_km": 388.61862830500104,
        "timestamp": "2025-12-27T19:21:57.546437+00:00",
        "meta_object_name": "STARLINK-35705",
        "meta_object_id": "2025-294K",
        "meta_epoch": "2025-12-27T12:00:02.000160",
        "meta_mean_motion": 15.61515952,
        "meta_eccentricity": 0.0001273,
        "meta_inclination": 42.9988,
        "meta_ra_of_asc_node": 92.1843,
        "meta_arg_of_pericenter": 282.2949,
        "meta_mean_anomaly": 116.6434,
        "meta_ephemeris_type": 0,
        "meta_classification_type": "U",
        "meta_norad_cat_id": 67039,
        "meta_element_set_no": 999,
        "meta_rev_at_epoch": 248,
        "meta_bstar": -0.025056,
        "meta_mean_motion_dot": -0.01945547,
        "meta_mean_motion_ddot": 0,
        "tle_line1": "1 67039U 25294K   25361.50002315 -.01945547  00000+0 -25056-1 0  9995",
        "tle_line2": "2 67039  42.9988  92.1843 0001273 282.2949 116.6434 15.61515952  2482"
      },
      "geometry": {
        "type": "Point",
        "coordinates": [
          63.591174942369484,
          -22.767283277564733
        ]
      }
    }
  ]
}